{"type": "FeatureCollection", "features": [ {"type": "Feature", "properties": {"norad_id": 66810, "name": "STARLINK-36046", "group": "last-30-days", "lat": 23.402805974842252, "lon": -166.105402397856, "alt_km": 411.96459793329814, "timestamp": "2025-12-27T02:10:14.907838+00:00", "meta": {"OBJECT_NAME": "STARLINK-36046", "OBJECT_ID": "2025-278V", "EPOCH": "2025-12-26T20:00:01.999008", "MEAN_MOTION": 15.50575772, "ECCENTRICITY": 0.0001448, "INCLINATION": 43, "RA_OF_ASC_NODE": 167.7241, "ARG_OF_PERICENTER": 268.6696, "MEAN_ANOMALY": 130.1912, "EPHEMERIS_TYPE": 0, "CLASSIFICATION_TYPE": "U", "NORAD_CAT_ID": 66810, "ELEMENT_SET_NO": 999, "REV_AT_EPOCH": 499, "BSTAR": -0.00065611, "MEAN_MOTION_DOT": -0.00038638, "MEAN_MOTION_DDOT": 0}, "tle": {"line1": "1 66810U 25278V   25360.83335647 -.00038638  00000+0 -65611-3 0  9991", "line2": "2 66810  43.0000 167.7241 0001448 268.6696 130.1912 15.50575772  4991"}}, "geometry": {"type": "Point", "coordinates": [-166.105402397856, 23.402805974842252]}}, {"type": "Feature", "properties": {"norad_id": 66811, "name": "STARLINK-36045", "group": "last-30-days", "lat": 24.552602385965667, "lon": -164.42874621175682, "alt_km": 411.78255386147066, "timestamp": "2025-12-27T02:10:14.907848+00:00", "meta": {"OBJECT_NAME": "STARLINK-36045", "OBJECT_ID": "2025-278W", "EPOCH": "2025-12-26T20:00:01.999008", "MEAN_MOTION": 15.50578313, "ECCENTRICITY": 0.0001441, "INCLINATION": 43.0001, "RA_OF_ASC_NODE": 167.7187, "ARG_OF_PERICENTER": 269.9957, "MEAN_ANOMALY": 130.7813, "EPHEMERIS_TYPE": 0, "CLASSIFICATION_TYPE": "U", "NORAD_CAT_ID": 66811, "ELEMENT_SET_NO": 999, "REV_AT_EPOCH": 522, "BSTAR": -0.00071376, "MEAN_MOTION_DOT": -0.00041989, "MEAN_MOTION_DDOT": 0}, "tle": {"line1": "1 66811U 25278W   25360.83335647 -.00041989  00000+0 -71376-3 0  9990", "line2": "2 66811  43.0001 167.7187 0001441 269.9957 130.7813 15.50578313  5226"}}, "geometry": {"type": "Point", "coordinates": [-164.42874621175682, 24.552602385965667]}}, {"type": "Feature", "properties": {"norad_id": 66812, "name": "STARLINK-36054", "group": "last-30-days", "lat": 26.79469630869986, "lon": -160.9781130166641, "alt_km": 411.41728231012985, "timestamp": "2025-12-27T02:10:14.907858+00:00", "meta": {"OBJECT_NAME": "STARLINK-36054", "OBJECT_ID": "2025-278X", "EPOCH": "2025-12-26T20:00:01.999008", "MEAN_MOTION": 15.50581197, "ECCENTRICITY": 0.0001504, "INCLINATION": 43.0001, "RA_OF_ASC_NODE": 167.7093, "ARG_OF_PERICENTER": 275.4783, "MEAN_ANOMALY": 129.1326, "EPHEMERIS_TYPE": 0, "CLASSIFICATION_TYPE": "U", "NORAD_CAT_ID": 66812, "ELEMENT_SET_NO": 999, "REV_AT_EPOCH": 522, "BSTAR": -0.00076718, "MEAN_MOTION_DOT": -0.00045093, "MEAN_MOTION_DDOT": 0}, "tle": {"line1": "1 66812U 25278X   25360.83335647 -.00045093  00000+0 -76718-3 0  9996", "line2": "2 66812  43.0001 167.7093 0001504 275.4783 129.1326 15.50581197  5227"}}, "geometry": {"type": "Point", "coordinates": [-160.9781130166641, 26.79469630869986]}}, {"type": "Feature", "properties": {"norad_id": 66813, "name": "STARLINK-36042", "group": "last-30-days", "lat": 27.883114644817255, "lon": -159.20420848226985, "alt_km": 411.44085060011275, "timestamp": "2025-12-27T02:10:14.907869+00:00", "meta": {"OBJECT_NAME": "STARLINK-36042", "OBJECT_ID": "2025-278Y", "EPOCH": "2025-12-26T20:00:01.999008", "MEAN_MOTION": 15.50581595, "ECCENTRICITY": 0.0001484, "INCLINATION": 43.0001, "RA_OF_ASC_NODE": 167.7037, "ARG_OF_PERICENTER": 262.0934, "MEAN_ANOMALY": 144.4388, "EPHEMERIS_TYPE": 0, "CLASSIFICATION_TYPE": "U", "NORAD_CAT_ID": 66813, "ELEMENT_SET_NO": 999, "REV_AT_EPOCH": 522, "BSTAR": -0.00085547, "MEAN_MOTION_DOT": -0.00050212, "MEAN_MOTION_DDOT": 0}, "tle": {"line1": "1 66813U 25278Y   25360.83335647 -.00050212  00000+0 -85547-3 0  9996", "line2": "2 66813  43.0001 167.7037 0001484 262.0934 144.4388 15.50581595  5223"}}, "geometry": {"type": "Point", "coordinates": [-159.20420848226985, 27.883114644817255]}}, {"type": "Feature", "properties": {"norad_id": 66814, "name": "STARLINK-35984", "group": "last-30-days", "lat": 30.604220828704342, "lon": -154.4117631945614, "alt_km": 422.84856035915163, "timestamp": "2025-12-27T02:10:14.907879+00:00", "meta": {"OBJECT_NAME": "STARLINK-35984", "OBJECT_ID": "2025-278Z", "EPOCH": "2025-12-26T20:00:01.999008", "MEAN_MOTION": 15.47703429, "ECCENTRICITY": 0.0001636, "INCLINATION": 43.0001, "RA_OF_ASC_NODE": 167.6828, "ARG_OF_PERICENTER": 276.8896, "MEAN_ANOMALY": 137.8389, "EPHEMERIS_TYPE": 0, "CLASSIFICATION_TYPE": "U", "NORAD_CAT_ID": 66814, "ELEMENT_SET_NO": 999, "REV_AT_EPOCH": 531, "BSTAR": -0.044097, "MEAN_MOTION_DOT": -0.02076892, "MEAN_MOTION_DDOT": 0}, "tle": {"line1": "1 66814U 25278Z   25360.83335647 -.02076892  00000+0 -44097-1 0  9994", "line2": "2 66814  43.0001 167.6828 0001636 276.8896 137.8389 15.47703429  5315"}}, "geometry": {"type": "Point", "coordinates": [-154.4117631945614, 30.604220828704342]}}, {"type": "Feature", "properties": {"norad_id": 66815, "name": "STARLINK-35985", "group": "last-30-days", "lat": 32.94258254859, "lon": -149.7680261483745, "alt_km": 410.69184663498163, "timestamp": "2025-12-27T02:10:14.907889+00:00", "meta": {"OBJECT_NAME": "STARLINK-35985", "OBJECT_ID": "2025-278AA", "EPOCH": "2025-12-26T20:00:01.999008", "MEAN_MOTION": 15.50573842, "ECCENTRICITY": 0.0001595, "INCLINATION": 43.0001, "RA_OF_ASC_NODE": 167.6792, "ARG_OF_PERICENTER": 271.0816, "MEAN_ANOMALY": 145.0375, "EPHEMERIS_TYPE": 0, "CLASSIFICATION_TYPE": "U", "NORAD_CAT_ID": 66815, "ELEMENT_SET_NO": 999, "REV_AT_EPOCH": 531, "BSTAR": -0.00066216, "MEAN_MOTION_DOT": -0.00038988, "MEAN_MOTION_DDOT": 0}, "tle": {"line1": "1 66815U 25278AA  25360.83335647 -.00038988  00000+0 -66216-3 0  9996", "line2": "2 66815  43.0001 167.6792 0001595 271.0816 145.0375 15.50573842  5313"}}, "geometry": {"type": "Point", "coordinates": [-149.7680261483745, 32.94258254859]}}, {"type": "Feature", "properties": {"norad_id": 66816, "name": "STARLINK-36098", "group": "last-30-days", "lat": 28.948342607333718, "lon": -157.39366294275675, "alt_km": 411.29625488719284, "timestamp": "2025-12-27T02:10:14.907901+00:00", "meta": {"OBJECT_NAME": "STARLINK-36098", "OBJECT_ID": "2025-278AB", "EPOCH": "2025-12-26T20:00:01.999008", "MEAN_MOTION": 15.5058087, "ECCENTRICITY": 0.0001527, "INCLINATION": 43.0001, "RA_OF_ASC_NODE": 167.6988, "ARG_OF_PERICENTER": 263.2472, "MEAN_ANOMALY": 145.2021, "EPHEMERIS_TYPE": 0, "CLASSIFICATION_TYPE": "U", "NORAD_CAT_ID": 66816, "ELEMENT_SET_NO": 999, "REV_AT_EPOCH": 506, "BSTAR": -0.00079848, "MEAN_MOTION_DOT": -0.00046908, "MEAN_MOTION_DDOT": 0}, "tle": {"line1": "1 66816U 25278AB  25360.83335647 -.00046908  00000+0 -79848-3 0  9993", "line2": "2 66816  43.0001 167.6988 0001527 263.2472 145.2021 15.50580870  5068"}}, "geometry": {"type": "Point", "coordinates": [-157.39366294275675, 28.948342607333718]}}, {"type": "Feature", "properties": {"norad_id": 66817, "name": "STARLINK-35995", "group": "last-30-days", "lat": 31.001697134945488, "lon": -153.6610741780759, "alt_km": 410.9158122325962, "timestamp": "2025-12-27T02:10:14.907912+00:00", "meta": {"OBJECT_NAME": "STARLINK-35995", "OBJECT_ID": "2025-278AC", "EPOCH": "2025-12-26T20:00:01.999008", "MEAN_MOTION": 15.50572679, "ECCENTRICITY": 0.0001555, "INCLINATION": 43.0001, "RA_OF_ASC_NODE": 167.6889, "ARG_OF_PERICENTER": 272.372, "MEAN_ANOMALY": 139.9132, "EPHEMERIS_TYPE": 0, "CLASSIFICATION_TYPE": "U", "NORAD_CAT_ID": 66817, "ELEMENT_SET_NO": 999, "REV_AT_EPOCH": 522, "BSTAR": -0.00057376, "MEAN_MOTION_DOT": -0.00033849, "MEAN_MOTION_DDOT": 0}, "tle": {"line1": "1 66817U 25278AC  25360.83335647 -.00033849  00000+0 -57376-3 0  9996", "line2": "2 66817  43.0001 167.6889 0001555 272.3720 139.9132 15.50572679  5226"}}, "geometry": {"type": "Point", "coordinates": [-153.6610741780759, 31.001697134945488]}}, {"type": "Feature", "properties": {"norad_id": 66818, "name": "STARLINK-35994", "group": "last-30-days", "lat": 8.203483786774072, "lon": 175.17641290237995, "alt_km": 441.28507750335484, "timestamp": "2025-12-27T02:10:14.907923+00:00", "meta": {"OBJECT_NAME": "STARLINK-35994", "OBJECT_ID": "2025-278AD", "EPOCH": "2025-12-26T20:00:01.999008", "MEAN_MOTION": 15.42436178, "ECCENTRICITY": 0.0002089, "INCLINATION": 42.9997, "RA_OF_ASC_NODE": 167.7609, "ARG_OF_PERICENTER": 277.1863, "MEAN_ANOMALY": 106.2396, "EPHEMERIS_TYPE": 0, "CLASSIFICATION_TYPE": "U", "NORAD_CAT_ID": 66818, "ELEMENT_SET_NO": 999, "REV_AT_EPOCH": 522, "BSTAR": -0.054772, "MEAN_MOTION_DOT": -0.02142039, "MEAN_MOTION_DDOT": 0}, "tle": {"line1": "1 66818U 25278AD  25360.83335647 -.02142039  00000+0 -54772-1 0  9996", "line2": "2 66818  42.9997 167.7609 0002089 277.1863 106.2396 15.42436178  5227"}}, "geometry": {"type": "Point", "coordinates": [175.17641290237995, 8.203483786774072]}}, {"type": "Feature", "properties": {"norad_id": 66819, "name": "STARLINK-35989", "group": "last-30-days", "lat": 31.987295524015522, "lon": -151.73459565079497, "alt_km": 410.7615738395525, "timestamp": "2025-12-27T02:10:14.907934+00:00", "meta": {"OBJECT_NAME": "STARLINK-35989", "OBJECT_ID": "2025-278AE", "EPOCH": "2025-12-26T20:00:01.999008", "MEAN_MOTION": 15.50580982, "ECCENTRICITY": 0.0001464, "INCLINATION": 43.0001, "RA_OF_ASC_NODE": 167.6842, "ARG_OF_PERICENTER": 270.1588, "MEAN_ANOMALY": 144.0409, "EPHEMERIS_TYPE": 0, "CLASSIFICATION_TYPE": "U", "NORAD_CAT_ID": 66819, "ELEMENT_SET_NO": 999, "REV_AT_EPOCH": 522, "BSTAR": -0.00083758, "MEAN_MOTION_DOT": -0.00049174, "MEAN_MOTION_DDOT": 0}, "tle": {"line1": "1 66819U 25278AE  25360.83335647 -.00049174  00000+0 -83758-3 0  9999", "line2": "2 66819  43.0001 167.6842 0001464 270.1588 144.0409 15.50580982  5224"}}, "geometry": {"type": "Point", "coordinates": [-151.73459565079497, 31.987295524015522]}}]}